ICEYE-X38               
1 59100U 24043C   26163.28910394  .00005344  00000+0  30818-3 0  9990
2 59100  97.8392 306.9016 0003933 100.0312 260.1362 15.12811388110937
ICEYE-X37               
1 59102U 24043E   26163.13139334  .00004123  00000+0  28601-3 0  9994
2 59102  97.8296 300.0526 0015651  30.8824 329.3320 15.06081558124322
ICEYE-X36               
1 59103U 24043F   26163.27033338  .00004708  00000+0  32016-3 0  9991
2 59103  97.8353 301.2551 0005426 348.3128  11.7972 15.06827347124409
PE2_FLT2  (TYVAK-0262)  
1 59104U 24043G   26163.30866917  .00003150  00000+0  27740-3 0  9991
2 59104  97.8384 293.9711 0007469  68.7739 291.4280 14.97195674123924
PE2_FLT1 (TYVAK-0261)   
1 59105U 24043H   26163.30880165  .00003116  00000+0  27456-3 0  9999
2 59105  97.8371 293.9375 0007330  65.3735 294.8249 14.97187503123927
RROCI-2                 
1 59106U 24043J   26163.24968293  .00003142  00000+0  25798-3 0  9998
2 59106  97.8456 295.9639 0011059  42.8234 317.3849 14.99906063124025
BRO-13                  
1 59107U 24043K   26163.27850725  .00000637  00000+0  61151-4 0  9992
2 59107  97.8489 294.2820 0009390  22.6864 337.4770 14.96583735123889
BRO-12                  
1 59108U 24043L   26163.27542032  .00000536  00000+0  51961-4 0  9998
2 59108  97.8477 294.4412 0008690  18.5500 341.6036 14.96828914123905
SONATE-2                
1 59112U 24043Q   26162.93769449  .00035538  00000+0  46836-3 0  9992
2 59112  97.5519 313.0138 0006785 213.3126 146.7703 15.58325832127076
CONTECSAT-1             
1 59117U 24043V   26163.33636470  .00010063  00000+0  28409-3 0  9991
2 59117  97.5631 304.2177 0008978 248.9780 111.0504 15.36546421126503
TIGER-8                 
1 59120U 24043Y   26162.97135196  .00008572  00000+0  18625-3 0  9994
2 59120  97.5532 311.3950 0006815 212.2021 147.8812 15.44589465126980
LYNK TOWER 5            
1 59121U 24043Z   26163.29213347  .00005731  00000+0  19583-3 0  9994
2 59121  97.5623 300.6970 0009576 263.4840  96.5310 15.30662753126293
NUSAT-44 (MARIA MITCHE*)
1 59122U 24043AA  26163.30496324  .00010928  00000+0  37947-3 0  9993
2 59122  97.5437 303.4939 0005863 245.2559 114.8071 15.29931800126527
LYNK TOWER 6            
1 59123U 24043AB  26163.30717509  .00005269  00000+0  17781-3 0  9991
2 59123  97.5587 300.2104 0008664 259.4362 100.5903 15.31115797126285
VSP ROSE                
1 59124U 24043AC  26163.32667038  .00004348  00000+0  15878-3 0  9997
2 59124  97.5605 299.6450 0009246 262.8069  97.2119 15.28634776126247
TRANSPORTER-10 OBJECT AD
1 59125U 24043AD  26163.30846200  .00008176  00000+0  23575-3 0  9992
2 59125  97.5626 304.1722 0007952 245.7202 114.3211 15.35958671126511
YAM-6                   
1 59126U 24043AE  26163.30007472  .00008987  00000+0  24979-3 0  9992
2 59126  97.5550 304.2928 0007127 240.8575 119.1956 15.37081222126565
JACKAL X-1L-001         
1 59127U 24043AF  26162.95318635  .00015856  00000+0  34510-3 0  9994
2 59127  97.5570 307.7392 0006202 228.8110 131.2604 15.44370270126742
TRANSPORTER-10 OBJECT AG
1 59128U 24043AG  26163.27507220  .00006331  00000+0  20695-3 0  9998
2 59128  97.5631 301.8667 0008441 254.8336 105.1972 15.32062769126361
APEX ARIES 1            
1 59129U 24043AH  26162.99846973  .00023676  00000+0  34704-3 0  9995
2 59129  97.5458 312.9339 0005221 210.9944 149.1003 15.55543879127117
GHOST-5                 
1 59130U 24043AJ  26163.30917513  .00013978  00000+0  32108-3 0  9992
2 59130  97.5579 307.6098 0007008 228.2187 131.8462 15.42787168126766
MESON-1                 
1 59131U 24043AK  26163.30685101  .00005858  00000+0  19762-3 0  9997
2 59131  97.5631 301.3644 0008743 255.5319 104.4952 15.31078415126330
LIZZIESAT-1 (LS-1)      
1 59132U 24043AL  26163.31608255  .00004096  00000+0  15530-3 0  9996
2 59132  97.5625 299.0584 0009265 260.9441  99.0750 15.27432172126194
GHOST-4                 
1 59133U 24043AM  26163.31518533  .00014501  00000+0  32814-3 0  9992
2 59133  97.5593 308.0836 0007392 227.5522 132.5101 15.43223819126780
JACKAL X-1L-002         
1 59134U 24043AN  26163.30443377  .00018618  00000+0  38209-3 0  9992
2 59134  97.5562 309.0623 0006721 218.8288 141.2478 15.46062152126866
VSP RF A1               
1 59135U 24043AP  26162.91372479  .00007000  00000+0  27449-3 0  9990
2 59135  97.5415 299.2519 0006889 251.6583 108.3906 15.26056241126181
VSP RF C1               
1 59136U 24043AQ  26163.22693545  .00003620  00000+0  12670-3 0  9990
2 59136  97.5602 301.0367 0008495 248.5721 111.4614 15.30154158126325
VSP RF B1               
1 59137U 24043AR  26162.90838256  .00002854  00000+0  11098-3 0  9996
2 59137  97.5609 299.8015 0008475 250.6953 109.3369 15.26860232126219
TIGER-7                 
1 59141U 24043AV  26163.28686930  .00015585  00000+0  29427-3 0  9993
2 59141  97.5471 314.0477 0005916 177.6466 182.4813 15.48526741127212
TRANSPORTER-10 OBJECT AW
1 59142U 24043AW  26163.18494214  .07570410  26263-5  42544-3 0  9995
2 59142  97.5138 324.2689 0013915 262.5077  97.4642 16.40877271127823
