OBJECT_NAME,OBJECT_ID,EPOCH,MEAN_MOTION,ECCENTRICITY,INCLINATION,RA_OF_ASC_NODE,ARG_OF_PERICENTER,MEAN_ANOMALY,EPHEMERIS_TYPE,CLASSIFICATION_TYPE,NORAD_CAT_ID,ELEMENT_SET_NO,REV_AT_EPOCH,BSTAR,MEAN_MOTION_DOT,MEAN_MOTION_DDOT
ICEYE-X38,2024-043C,2026-06-12T06:56:18.580416,15.12811388,.00039337,97.8392,306.9016,100.0312,260.1362,0,U,59100,999,11093,.30818055E-3,.5344E-4,0
ICEYE-X37,2024-043E,2026-06-12T03:09:12.384576,15.06081558,.00156512,97.8296,300.0526,30.8824,329.3320,0,U,59102,999,12432,.28601124E-3,.4123E-4,0
ICEYE-X36,2024-043F,2026-06-12T06:29:16.804032,15.06827347,.00054266,97.8353,301.2551,348.3128,11.7972,0,U,59103,999,12440,.32015826E-3,.4708E-4,0
PE2_FLT2  (TYVAK-0262),2024-043G,2026-06-12T07:24:29.016288,14.97195674,.00074691,97.8384,293.9711,68.7739,291.4280,0,U,59104,999,12392,.27739951E-3,.315E-4,0
PE2_FLT1 (TYVAK-0261),2024-043H,2026-06-12T07:24:40.462560,14.97187503,.00073304,97.8371,293.9375,65.3735,294.8249,0,U,59105,999,12392,.27456098E-3,.3116E-4,0
RROCI-2,2024-043J,2026-06-12T05:59:32.605152,14.99906063,.00110598,97.8456,295.9639,42.8234,317.3849,0,U,59106,999,12402,.25797685E-3,.3142E-4,0
BRO-13,2024-043K,2026-06-12T06:41:03.026400,14.96583735,.00093908,97.8489,294.2820,22.6864,337.4770,0,U,59107,999,12388,.61151169E-4,.637E-5,0
BRO-12,2024-043L,2026-06-12T06:36:36.315648,14.96828914,.00086908,97.8477,294.4412,18.5500,341.6036,0,U,59108,999,12390,.51960502E-4,.536E-5,0
SONATE-2,2024-043Q,2026-06-11T22:30:16.803936,15.58325832,.0006785,97.5519,313.0138,213.3126,146.7703,0,U,59112,999,12707,.46836077E-3,.35538E-3,0
CONTECSAT-1,2024-043V,2026-06-12T08:04:21.910080,15.36546421,.00089788,97.5631,304.2177,248.9780,111.0504,0,U,59117,999,12650,.28409217E-3,.10063E-3,0
TIGER-8,2024-043Y,2026-06-11T23:18:44.809344,15.44589465,.00068152,97.5532,311.3950,212.2021,147.8812,0,U,59120,999,12698,.18624659E-3,.8572E-4,0
LYNK TOWER 5,2024-043Z,2026-06-12T07:00:40.331808,15.30662753,.0009576,97.5623,300.6970,263.4840,96.5310,0,U,59121,999,12629,.19583279E-3,.5731E-4,0
NUSAT-44 (MARIA MITCHELL),2024-043AA,2026-06-12T07:19:08.823936,15.29931800,.00058638,97.5437,303.4939,245.2559,114.8071,0,U,59122,999,12652,.37946886E-3,.10928E-3,0
LYNK TOWER 6,2024-043AB,2026-06-12T07:22:19.927776,15.31115797,.00086642,97.5587,300.2104,259.4362,100.5903,0,U,59123,999,12628,.17780836E-3,.5269E-4,0
VSP ROSE,2024-043AC,2026-06-12T07:50:24.320832,15.28634776,.00092468,97.5605,299.6450,262.8069,97.2119,0,U,59124,999,12624,.15877511E-3,.4348E-4,0
TRANSPORTER-10 OBJECT AD,2024-043AD,2026-06-12T07:24:11.116800,15.35958671,.00079524,97.5626,304.1722,245.7202,114.3211,0,U,59125,999,12651,.23574953E-3,.8176E-4,0
YAM-6,2024-043AE,2026-06-12T07:12:06.455808,15.37081222,.0007127,97.5550,304.2928,240.8575,119.1956,0,U,59126,999,12656,.24979275E-3,.8987E-4,0
JACKAL X-1L-001,2024-043AF,2026-06-11T22:52:35.300640,15.44370270,.00062027,97.5570,307.7392,228.8110,131.2604,0,U,59127,999,12674,.34509512E-3,.15856E-3,0
TRANSPORTER-10 OBJECT AG,2024-043AG,2026-06-12T06:36:06.238080,15.32062769,.00084418,97.5631,301.8667,254.8336,105.1972,0,U,59128,999,12636,.20694667E-3,.6331E-4,0
APEX ARIES 1,2024-043AH,2026-06-11T23:57:47.784672,15.55543879,.00052219,97.5458,312.9339,210.9944,149.1003,0,U,59129,999,12711,.34704392E-3,.23676E-3,0
GHOST-5,2024-043AJ,2026-06-12T07:25:12.731232,15.42787168,.00070085,97.5579,307.6098,228.2187,131.8462,0,U,59130,999,12676,.32107642E-3,.13978E-3,0
MESON-1,2024-043AK,2026-06-12T07:21:51.927264,15.31078415,.00087438,97.5631,301.3644,255.5319,104.4952,0,U,59131,999,12633,.19762396E-3,.5858E-4,0
LIZZIESAT-1 (LS-1),2024-043AL,2026-06-12T07:35:09.532320,15.27432172,.00092658,97.5625,299.0584,260.9441,99.0750,0,U,59132,999,12619,.15530091E-3,.4096E-4,0
GHOST-4,2024-043AM,2026-06-12T07:33:52.012512,15.43223819,.00073929,97.5593,308.0836,227.5522,132.5101,0,U,59133,999,12678,.32814069E-3,.14501E-3,0
JACKAL X-1L-002,2024-043AN,2026-06-12T07:18:23.077728,15.46062152,.00067217,97.5562,309.0623,218.8288,141.2478,0,U,59134,999,12686,.38209001E-3,.18618E-3,0
VSP RF A1,2024-043AP,2026-06-11T21:55:45.821856,15.26056241,.00068894,97.5415,299.2519,251.6583,108.3906,0,U,59135,999,12618,.27449356E-3,.7E-4,0
VSP RF C1,2024-043AQ,2026-06-12T05:26:47.222880,15.30154158,.00084951,97.5602,301.0367,248.5721,111.4614,0,U,59136,999,12632,.12670444E-3,.362E-4,0
VSP RF B1,2024-043AR,2026-06-11T21:48:04.253184,15.26860232,.00084752,97.5609,299.8015,250.6953,109.3369,0,U,59137,999,12621,.11097843E-3,.2854E-4,0
TIGER-7,2024-043AV,2026-06-12T06:53:05.507520,15.48526741,.00059167,97.5471,314.0477,177.6466,182.4813,0,U,59141,999,12721,.29426625E-3,.15585E-3,0
TRANSPORTER-10 OBJECT AW,2024-043AW,2026-06-12T04:26:19.000896,16.40877271,.0013915,97.5138,324.2689,262.5077,97.4642,0,U,59142,999,12782,.4254366E-3,.757041E-1,.2626347E-5
